#cP2017  8 31  0  0  0.00000000      96 TRACK IGb14 FIT GRGS
## 1964 345600.00000000   900.00000000 57996 0.0000000000000
+   68   E01E02E03E04E05E07E08E09E11E12E14E18E19E22E24E26E30
+        R01R02R03R04R05R06R07R08R10R11R13R15R16R17R18R19R20
+        R21R22R23R24G01G02G03G06G07G08G09G10G11G12G13G14G15
+        G16G17G18G19G20G21G22G23G24G25G26G27G28G29G30G31G32
+          0  0  0  0  0  0  0  0  0  0  0  0  0  0  0  0  0
++         6  7  6  6  6  6  6  6  7  7  7  6  6  5  6  6  6
++         6  6  6  6  6  5  5  5  5  5  5  6  5  6  6  5  5
++         5  5  6  6  5  4  5  4  4  4  5  6  4  6  5  4  4
++         5  4  6  4  6  5  5  4  5  5  5  4  5  4  5  4  4
++         0  0  0  0  0  0  0  0  0  0  0  0  0  0  0  0  0
%c M  cc GPS ccc cccc cccc cccc cccc ccccc ccccc ccccc ccccc
%c cc cc ccc ccc cccc cccc cccc cccc ccccc ccccc ccccc ccccc
%f  0.0000000  0.000000000  0.00000000000  0.000000000000000
%f  0.0000000  0.000000000  0.00000000000  0.000000000000000
%i    0    0    0    0      0      0      0      0         0
%i    0    0    0    0      0      0      0      0         0
/* CNES/CLS/GRGS - TOULOUSE,FRANCE - Contact : igs-ac@cls.fr
/* PCV:IGS14_1958 OL/AL:FES2012  NONE     NN ORB:CoN CLK:CoN
/* CCCCCCCCCCCCCCCCCCCCCCCCCCCCCCCCCCCCCCCCCCCCCCCCCCCCCCCCC
/* CCCCCCCCCCCCCCCCCCCCCCCCCCCCCCCCCCCCCCCCCCCCCCCCCCCCCCCCC
*  2017  8 31 12  0  0.00000000
PE01 -20171.357569  19165.529163 -10115.006406   -150.070496
PE02  20140.704839 -19171.800045  10145.734049     -8.078471
PE03  10708.279665 -13533.118354 -24041.122807     66.834482
PE04   9887.999079  20988.261734  18392.836103    129.990267
PE05  25077.238970   1874.071058 -15609.650492    429.306447
PE07 -24742.598696 -16137.733732  -1920.521517    177.917951
PE08 -10093.141444 -20773.489319 -18509.828784   6749.178969
PE09  24861.331058  15924.420138   2051.724520   7029.994365
PE11  13629.080843  17008.646907  20024.711512   1799.989983
PE12   3209.673332  29070.006474   4600.827091   2287.515886
PE14   8497.313333  28345.884993  -7381.923470   6724.248501
PE18 -16209.341172 -20380.875471  -5935.735595   6836.787148
PE19 -12364.331720  12264.386351  23941.202101     13.663790
PE22   9068.518253 -24891.036409  13201.582994   6583.900199
PE24  18017.145405   6600.719822 -22544.113847   5700.784994
PE26 -16434.888401   5340.431558 -24036.235773   6894.651161
PE30   1430.071995 -18232.969978  23270.317451   6526.246871
PR01 -20082.828798 -12651.453595  -9359.414751     14.858419
PR02 -23083.043980  -4191.340429   9996.848601    267.936352
PR03 -11717.614482   6472.294015  21745.562767    109.507889
PR04   6909.729114  13354.458777  20626.935514    228.950280
PR05  20909.777014  12226.470101   7980.876289   -156.494342
PR06  22942.927185   3327.021882 -10681.125778    116.889048
PR07  11454.622843  -6589.106465 -21788.883232    -15.125116
PR08  -6299.923080 -13234.952941 -20823.327715    -26.749827
PR10  18679.264654 -16747.767538   4330.365689      9.785947
PR11   5797.020936 -15836.682754  19136.492286     -9.033605
PR13 -20456.070463   8788.414065  12450.577885     -2.230789
PR15  -8504.951692  16536.283964 -17402.357482     -0.560409
PR16  10112.215680   5730.360457 -22732.701321     73.140934
PR17  -6304.067594  16716.926704 -18186.897101     67.886261
PR18   1792.596457  25232.330353  -3509.590724    164.362185
PR19   8636.386037  19612.788004  13824.746191    -21.643305
PR20  10750.289236   1556.444402  23081.321154   -305.374659
PR21   6158.514713 -16838.525410  18150.704955    131.984138
PR22  -2454.943199 -25245.668734   1977.061657     27.536464
PR23  -9696.323752 -17402.256765 -15947.761112    104.979213
PR24 -10799.345207  -1015.683057 -23117.681522   -155.119849
PG01  13810.552360 -22360.686513   2465.828288     55.586248
PG02 -17417.833998   5901.266734 -18534.174921    341.390464
PG03  13606.128041 -13436.794790 -18426.085086    -72.944912
PG06 -11828.350435  -9644.605733 -21720.605392    393.386565
PG07   3682.196217 -23468.142657  11600.454174    308.715080
PG08  12954.385133  -7763.576352  21897.958063    -71.836017
PG09  -4683.076790 -23137.999850 -12185.695835    434.821195
PG10  17089.137022  11198.865512  17064.206955     52.321845
PG11  10439.229448 -21564.088125  10991.774299   -712.668258
PG12 -18068.211720  10481.950847 -16453.578906    374.281447
PG13 -16069.003970   -100.209699  21031.225782    -90.596583
PG14  17578.679339  16326.022647 -11295.211188    -82.378991
PG15 -10898.983530  11675.465894  21013.152738   -355.312067
PG16  26711.662241   -165.704978   1790.743624     36.918504
PG17 -14595.962331 -22082.731249  -2673.429013   -160.115756
PG18   6479.211206  15441.872459  21231.537053    628.455637
PG19 -17148.160165 -16725.465793 -11492.110718   -488.509839
PG20 -17751.339052  13382.188970  14374.016905    485.078173
PG21   1515.834526  22349.719931  14988.100260   -483.028916
PG22  20926.015982 -10935.665133 -11962.742645   -106.266232
PG23   4021.158674 -18308.378430 -18392.618646   -216.884806
PG24 -14601.140420  21333.938753   5393.146219    -39.302401
PG25  -5354.454030  14761.211223 -21544.433806   -448.280681
PG26  24846.346307   4532.237100  -8371.106489   -438.589189
PG27  18189.878520   4860.919622  18760.224747    318.414323
PG28 -12728.792814 -13490.391810  19639.358576    641.901783
PG29   1196.275992  22207.697285 -14544.894682    568.463072
PG30  -5398.607713 -17646.788091  19056.363315    143.038227
PG31  13379.570661   6961.136451 -21800.073170    178.332784
PG32  17044.817626  19727.349113  -5209.225697   -492.449372
*  2017  8 31 12 15  0.00000000
PE01 -20776.668571  19704.509077  -7524.791695   -150.078269
PE02  20748.421247 -19710.989195   7555.922989     -8.078432
PE03  12603.262675 -12504.403293 -23676.087373     66.830200
PE04   8374.339459  20143.905394  20017.082316    129.984067
PE05  26241.346038   2483.289572 -13464.772086    429.299478
PE07 -24496.855854 -15972.305090  -4586.044290    177.912394
PE08  -8563.046911 -19931.163315 -20134.281426   6749.171507
PE09  24611.772013  15743.706257   4727.380071   7029.984501
PE11  13746.354279  18739.843472  18329.302922   1799.996069
PE12   3308.199007  29360.299699   1893.242409   2287.591734
PE14   8338.349433  28136.864756  -9687.358728   6724.242470
PE18 -15694.298302 -20682.460441  -3180.873057   6836.761259
PE19 -14249.578738  11260.303479  23379.405449     13.664124
PE22   9044.804448 -23595.431397  15409.163501   6583.866044
PE24  16213.416891   7647.969431 -23559.448325   5701.144659
PE26 -16493.220375   3154.513138 -24380.922787   6894.612146
PE30   3152.655646 -19357.314987  22166.262197   6526.219018
PR01 -18865.040308 -12108.034690 -12183.093045     14.858881
PR02 -24111.678290  -4420.933349   7008.514583    267.938048
PR03 -14176.171117   5635.834439  20472.028462    109.509244
PR04   4468.772950  12410.803049  21852.883718    228.951988
PR05  19846.222536  11737.223951  10896.994463   -156.499290
PR06  24052.098130   3593.935784  -7753.265027    116.889510
PR07  13934.480133  -5742.392312 -20553.251808    -15.126272
PR08  -3824.503317 -12279.133456 -21975.633389    -26.750003
PR10  18824.153387 -17106.340181   1113.353516      9.785263
PR11   7476.756306 -17317.877636  17163.215766     -9.034336
PR13 -19070.024734   7796.747180  15038.042927     -2.230163
PR15  -9978.376438  17914.215187 -15098.268597     -0.560584
PR16   7948.128659   7539.090739 -23054.112941     73.141641
PR17  -6599.660452  14374.733380 -19997.144186     67.888857
PR18   1870.196972  24582.551581  -6656.795857    164.363716
PR19   9030.696519  21111.573545  11097.393595    -21.644585
PR20  11202.924974   4335.765086  22507.951094   -305.376002
PR21   6448.811236 -14499.584429  19974.165807    131.986059
PR22  -2561.750577 -24777.677644   5179.684659     27.533063
PR23 -10143.276175 -19165.674319 -13450.604916    104.981140
PR24 -11295.157693  -3786.735685 -22585.462066   -155.120427
PG01  13833.713373 -21834.277880   5306.651186     55.585831
PG02 -16658.435851   3720.609294 -19754.010459    341.382565
PG03  15624.101170 -13430.758441 -16749.125723    -72.941314
PG06 -10726.095256 -11841.081323 -21199.600662    393.389552
PG07   4436.291971 -24397.607155   9065.080713    308.711017
PG08  14357.633910  -5719.650936  21659.077853    -71.837075
PG09  -3634.683252 -22014.517454 -14424.637071    434.826987
PG10  15069.049046  11492.226416  18686.430305     52.331037
PG11  10718.258219 -20073.867602  13199.637360   -712.670073
PG12 -19807.445205  10373.733816 -14349.240835    374.279983
PG13 -17094.959424  -2242.077371  20083.889605    -90.597429
PG14  17974.997131  17459.164949  -8771.061625    -82.379733
PG15 -12457.205409   9767.424325  21153.671266   -355.312636
PG16  26764.539867    -22.549453  -1096.586354     36.918470
PG17 -14529.361206 -22334.374337    207.721254   -160.113752
PG18   4162.166824  15757.931267  21570.164356    628.456798
PG19 -17524.678866 -17814.073044  -8918.843282   -488.508200
PG20 -19326.645520  13376.794280  12204.464131    485.079187
PG21    718.477727  23620.075240  12820.645760   -483.026016
PG22  22224.465818 -10781.831897  -9573.567090   -106.277711
PG23   5434.075267 -16556.801307 -19668.065072   -216.885046
PG24 -14564.100524  20488.211209   8085.691522    -39.302665
PG25  -7738.403749  14862.130670 -20710.311729   -448.286445
PG26  23769.090650   4855.924560 -10920.528374   -438.580487
PG27  19258.267954   6617.277280  17107.591239    318.419323
PG28 -10538.804309 -13533.414595  20907.811568    641.905017
PG29    167.690071  20754.573014 -16594.938147    568.458975
PG30  -4233.565485 -19405.235426  17570.278888    143.036424
PG31  12195.690681   9163.384646 -21645.067378    178.330493
PG32  17082.641912  20233.726906  -2407.445894   -492.455060
EOF
